NORAD_CAT_ID,OBJECT_NAME,OBJECT_TYPE,EPOCH,MEAN_MOTION,ECCENTRICITY,INCLINATION,RA_OF_ASC_NODE,ARG_OF_PERICENTER,MEAN_ANOMALY,BSTAR,MEAN_MOTION_DOT,MEAN_MOTION_DDOT,TLE_LINE0,TLE_LINE1,TLE_LINE2,SEMIMAJOR_AXIS,PERIOD,APOGEE,PERIGEE,DECAYED
53566.0,STARLINK-4576,PAYLOAD,2024-01-26 23:42:35,15.08844578,0.0001624,53.2169,282.9058,96.3661,263.7516,0.00022676,3.323e-05,0.0,0 STARLINK-4576,1 53566U 22101AR  24026.98791186  .00003323  00000-0  22676-3 0  9991,2 53566  53.2169 282.9058 0001624  96.3661 263.7516 15.08844578 79793,6917.866,95.437,540.855,538.608,0.0
53566.0,STARLINK-4576,PAYLOAD,2024-01-27 20:22:36,15.08841472,0.0001772,53.2169,279.0413,111.3898,248.7283,8.0208e-05,9.89e-06,0.0,0 STARLINK-4576,1 53566U 22101AR  24027.84903250  .00000989  00000-0  80208-4 0  9995,2 53566  53.2169 279.0413 0001772 111.3898 248.7283 15.08841472 79928,6917.876,95.437,540.967,538.515,0.0
53566.0,STARLINK-4576,PAYLOAD,2024-01-27 21:57:59,15.08838432,0.0001642,53.2164,278.7431,105.1735,254.9439,0.00016074,2.271e-05,0.0,0 STARLINK-4576,1 53566U 22101AR  24027.91527337  .00002271  00000-0  16074-3 0  9996,2 53566  53.2164 278.7431 0001642 105.1735 254.9439 15.08838432 80629,6917.885,95.438,540.886,538.614,0.0
53566.0,STARLINK-4576,PAYLOAD,2024-01-27 23:33:22,15.08844122,0.000164,53.2161,278.4464,104.7945,255.3229,8.8973e-05,1.128e-05,0.0,0 STARLINK-4576,1 53566U 22101AR  24027.98151038  .00001128  00000-0  88973-4 0  9992,2 53566  53.2161 278.4464 0001640 104.7945 255.3229 15.08844122 80631,6917.868,95.437,540.867,538.598,0.0
53566.0,STARLINK-4576,PAYLOAD,2024-01-28 20:13:23,15.08835631,0.0001789,53.2174,274.5778,120.0541,240.0628,4.8872e-05,4.9e-06,0.0,0 STARLINK-4576,1 53566U 22101AR  24028.84263810  .00000490  00000-0  48872-4 0  9995,2 53566  53.2174 274.5778 0001789 120.0541 240.0628 15.08835631 80074,6917.894,95.438,540.996,538.521,0.0
53566.0,STARLINK-4576,PAYLOAD,2024-01-28 21:48:47,15.08835143,0.000166,53.2172,274.2804,112.71,247.4067,3.9224e-05,3.36e-06,0.0,0 STARLINK-4576,1 53566U 22101AR  24028.90887896  .00000336  00000-0  39224-4 0  9998,2 53566  53.2172 274.2804 0001660 112.7100 247.4067 15.08835143 80779,6917.895,95.438,540.909,538.612,0.0
53566.0,STARLINK-4576,PAYLOAD,2024-01-29 00:59:33,15.08838433,0.0001523,53.217,273.6855,106.2919,253.8241,3.2469e-05,2.29e-06,0.0,0 STARLINK-4576,1 53566U 22101AR  24029.04135721  .00000229  00000-0  32469-4 0  9992,2 53566  53.2170 273.6855 0001523 106.2919 253.8241 15.08838433 80792,6917.885,95.438,540.804,538.697,0.0
53566.0,STARLINK-4576,PAYLOAD,2024-01-30 00:50:20,15.08830496,0.0001706,53.2165,269.2245,120.2944,239.8217,0.00033877,5.106e-05,0.0,0 STARLINK-4576,1 53566U 22101AR  24030.03495647  .00005106  00000-0  33877-3 0  9991,2 53566  53.2165 269.2245 0001706 120.2944 239.8217 15.08830496 80256,6917.909,95.438,540.955,538.594,0.0
53566.0,STARLINK-4576,PAYLOAD,2024-01-30 23:05:44,15.08842089,0.0001168,53.2158,265.0594,94.9295,265.183,9.4381e-05,1.215e-05,0.0,0 STARLINK-4576,1 53566U 22101AR  24030.96231502  .00001215  00000-0  94381-4 0  9996,2 53566  53.2158 265.0594 0001168  94.9295 265.1830 15.08842089 81083,6917.874,95.437,540.547,538.931,0.0
53566.0,STARLINK-4576,PAYLOAD,2024-01-31 00:41:07,15.08842414,0.0001207,53.216,264.7627,101.5877,258.525,0.00010138,1.326e-05,0.0,0 STARLINK-4576,1 53566U 22101AR  24031.02855442  .00001326  00000-0  10138-3 0  9999,2 53566  53.2160 264.7627 0001207 101.5877 258.5250 15.08842414 81099,6917.873,95.437,540.573,538.903,0.0
53566.0,STARLINK-4576,PAYLOAD,2024-02-01 00:31:54,15.08837609,0.000135,53.216,260.3062,81.3335,278.781,6.5499e-05,7.55e-06,0.0,0 STARLINK-4576,1 53566U 22101AR  24032.02215963  .00000755  00000-0  65499-4 0  9994,2 53566  53.2160 260.3062 0001350  81.3335 278.7810 15.08837609 80553,6917.888,95.438,540.687,538.819,0.0
53566.0,STARLINK-4576,PAYLOAD,2024-02-01 16:25:46,15.0883875,0.0001326,53.2161,257.3318,83.9006,276.2137,4.3877e-05,4.1e-06,0.0,0 STARLINK-4576,1 53566U 22101AR  24032.68456048  .00000410  00000-0  43877-4 0  9991,2 53566  53.2161 257.3318 0001326  83.9006 276.2137 15.08838750 81341,6917.884,95.438,540.667,538.832,0.0
53566.0,STARLINK-4576,PAYLOAD,2024-02-02 19:27:19,15.08840995,0.0001464,53.2166,252.277,98.5145,261.6013,0.00011377,1.523e-05,0.0,0 STARLINK-4576,1 53566U 22101AR  24033.81063694  .00001523  00000-0  11377-3 0  9993,2 53566  53.2166 252.2770 0001464  98.5145 261.6013 15.08840995 80828,6917.877,95.437,540.755,538.73,0.0
53566.0,STARLINK-4576,PAYLOAD,2024-02-02 21:02:42,15.08841068,0.0001445,53.2165,251.9796,97.3781,262.7375,0.00011374,1.523e-05,0.0,0 STARLINK-4576,1 53566U 22101AR  24033.87687676  .00001523  00000-0  11374-3 0  9998,2 53566  53.2165 251.9796 0001445  97.3781 262.7375 15.08841068 81526,6917.877,95.437,540.742,538.742,0.0
53566.0,STARLINK-4576,PAYLOAD,2024-02-03 00:13:28,15.08842506,0.0001338,53.2155,251.3827,91.094,269.0205,0.00012587,1.716e-05,0.0,0 STARLINK-4576,1 53566U 22101AR  24034.00935549  .00001716  00000-0  12587-3 0  9990,2 53566  53.2155 251.3827 0001338  91.0940 269.0205 15.08842506 81545,6917.873,95.437,540.663,538.812,0.0
53566.0,STARLINK-4576,PAYLOAD,2024-02-03 19:18:06,15.08839887,0.0001347,53.2149,247.8123,97.0156,263.099,4.1994e-05,3.8e-06,0.0,0 STARLINK-4576,1 53566U 22101AR  24034.80424013  .00000380  00000-0  41994-4 0  9998,2 53566  53.2149 247.8123 0001347  97.0156 263.0990 15.08839887 80971,6917.881,95.438,540.678,538.814,0.0
53566.0,STARLINK-4576,PAYLOAD,2024-02-03 20:53:29,15.08839372,0.0001336,53.215,247.5151,95.366,264.7485,3.4791e-05,2.66e-06,0.0,0 STARLINK-4576,1 53566U 22101AR  24034.87048013  .00000266  00000-0  34791-4 0  9997,2 53566  53.2150 247.5151 0001336  95.3660 264.7485 15.08839372 81674,6917.882,95.438,540.672,538.823,0.0
53566.0,STARLINK-4576,PAYLOAD,2024-02-04 00:04:15,15.08839288,0.0001354,53.2151,246.9206,96.6434,263.4712,3.1834e-05,2.19e-06,0.0,0 STARLINK-4576,1 53566U 22101AR  24035.00296017  .00000219  00000-0  31834-4 0  9995,2 53566  53.2151 246.9206 0001354  96.6434 263.4712 15.08839288 81699,6917.883,95.438,540.684,538.811,0.0
53566.0,STARLINK-4576,PAYLOAD,2024-02-04 20:44:16,15.08840534,0.0001385,53.2157,243.0537,100.2225,259.8923,4.3757e-05,4.09e-06,0.0,0 STARLINK-4576,1 53566U 22101AR  24035.86407944  .00000409  00000-0  43757-4 0  9990,2 53566  53.2157 243.0537 0001385 100.2225 259.8923 15.08840534 81132,6917.879,95.438,540.702,538.786,0.0
53566.0,STARLINK-4576,PAYLOAD,2024-02-05 06:16:35,15.08840259,0.0001325,53.2156,241.2699,90.4243,269.6901,5.6437e-05,6.1e-06,0.0,0 STARLINK-4576,1 53566U 22101AR  24036.26152005  .00000610  00000-0  56437-4 0  9993,2 53566  53.2156 241.2699 0001325  90.4243 269.6901 15.08840259 81885,6917.88,95.438,540.661,538.828,0.0
53566.0,STARLINK-4576,PAYLOAD,2024-02-05 20:35:03,15.08839207,0.0001344,53.2157,238.5951,97.1322,262.9823,6.5059e-05,7.48e-06,0.0,0 STARLINK-4576,1 53566U 22101AR  24036.85768121  .00000748  00000-0  65059-4 0  9992,2 53566  53.2157 238.5951 0001344  97.1322 262.9823 15.08839207 81979,6917.883,95.438,540.678,538.818,0.0
53566.0,STARLINK-4576,PAYLOAD,2024-02-06 12:28:54,15.08842156,0.0001325,53.2158,235.6219,95.7095,264.4048,9.9094e-05,1.29e-05,0.0,0 STARLINK-4576,1 53566U 22101AR  24037.52007871  .00001290  00000-0  99094-4 0  9994,2 53566  53.2158 235.6219 0001325  95.7095 264.4048 15.08842156 82070,6917.874,95.437,540.655,538.822,0.0
53566.0,STARLINK-4576,PAYLOAD,2024-02-06 18:50:26,15.08852814,0.0001522,53.2159,234.4394,83.4399,276.6766,0.00012386,1.684e-05,0.0,0 STARLINK-4576,1 53566U 22101AR  24037.78503107  .00001684  00000-0  12386-3 0  9990,2 53566  53.2159 234.4394 0001522  83.4399 276.6766 15.08852814 81424,6917.841,95.437,540.759,538.653,0.0
53566.0,STARLINK-4576,PAYLOAD,2024-02-06 20:25:48,15.08863633,0.0001407,53.2157,234.1356,91.6416,268.4737,0.00025607,3.792e-05,0.0,0 STARLINK-4576,1 53566U 22101AR  24037.85125996  .00003792  00000-0  25607-3 0  9996,2 53566  53.2157 234.1356 0001407  91.6416 268.4737 15.08863633 82126,6917.808,95.436,540.646,538.7,0.0
53566.0,STARLINK-4576,PAYLOAD,2024-02-07 18:41:14,15.08844713,0.0001321,53.2156,229.9785,109.8959,250.2176,3.6951e-05,3e-06,0.0,0 STARLINK-4576,1 53566U 22101AR  24038.77863536  .00000300  00000-0  36951-4 0  9994,2 53566  53.2156 229.9785 0001321 109.8959 250.2176 15.08844713 81574,6917.866,95.437,540.645,538.817,0.0
53566.0,STARLINK-4576,PAYLOAD,2024-02-07 21:52:00,15.08841039,0.0001327,53.2156,229.377,99.8688,260.2454,3.2547e-05,2.3e-06,0.0,0 STARLINK-4576,1 53566U 22101AR  24038.91111740  .00000230  00000-0  32547-4 0  9992,2 53566  53.2156 229.3770 0001327  99.8688 260.2454 15.08841039 82282,6917.877,95.437,540.66,538.824,0.0
53566.0,STARLINK-4576,PAYLOAD,2024-02-08 12:10:29,15.08841886,0.000153,53.216,226.7019,96.2464,263.8702,-0.0001772,-3.107e-05,0.0,0 STARLINK-4576,1 53566U 22101AR  24039.50728593 -.00003107  00000-0 -17720-3 0  9991,2 53566  53.2160 226.7019 0001530  96.2464 263.8702 15.08841886 81681,6917.875,95.437,540.798,538.681,0.0
53566.0,STARLINK-4576,PAYLOAD,2024-02-08 18:32:02,15.0884073,0.0001458,53.2156,225.5121,94.727,265.3888,-0.00018404,-3.216e-05,0.0,0 STARLINK-4576,1 53566U 22101AR  24039.77224654 -.00003216  00000-0 -18404-3 0  9990,2 53566  53.2156 225.5121 0001458  94.7270 265.3888 15.08840730 82415,6917.878,95.438,540.752,538.735,0.0
53566.0,STARLINK-4576,PAYLOAD,2024-02-09 12:01:16,15.08828829,0.0001565,53.2163,222.2412,91.6564,268.4607,9.1025e-05,1.161e-05,0.0,0 STARLINK-4576,1 53566U 22101AR  24040.50088856  .00001161  00000-0  91025-4 0  9991,2 53566  53.2163 222.2412 0001565  91.6564 268.4607 15.08828829 82521,6917.915,95.438,540.862,538.697,0.0
53566.0,STARLINK-4576,PAYLOAD,2024-02-09 18:22:49,15.08831396,0.000156,53.2162,221.0522,90.7818,269.3353,0.0001073,1.42e-05,0.0,0 STARLINK-4576,1 53566U 22101AR  24040.76584874  .00001420  00000-0  10730-3 0  9991,2 53566  53.2162 221.0522 0001560  90.7818 269.3353 15.08831396 81874,6917.907,95.438,540.851,538.692,0.0
